SL-16 R/B               
1 25400U 98043G   26039.47340038  .00000102  00000+0  61695-4 0  9997
2 25400  98.8206 352.6390 0010901  98.3275 261.9140 14.26042728434829
SL-16 R/B               
1 25407U 98045B   26039.04852782 -.00000052  00000+0 -23325-5 0  9998
2 25407  71.0083 243.9085 0005341  63.3484 296.8186 14.16185156422906
ISS (ZARYA)             
1 25544U 98067A   26039.47089640  .00010176  00000+0  19579-3 0  9996
2 25544  51.6313 216.7956 0011024  77.2796 282.9424 15.48482804551807
CZ-4B R/B               
1 25732U 99025C   26039.10541867  .00000061  00000+0  50234-4 0  9990
2 25732  98.6685  84.0797 0038110  70.7188 349.4988 14.18259329383971
OKEAN-O                 
1 25860U 99039A   26039.11316345  .00000883  00000+0  12280-3 0  9999
2 25860  97.9508  99.2955 0001877  87.2412 272.9014 14.80286486430017
SL-16 R/B               
1 25861U 99039B   26039.12098964  .00000707  00000+0  96485-4 0  9990
2 25861  98.0030  98.2517 0014686 358.9343   1.1836 14.81689152432481
DELTA 2 R/B             
1 25876U 99041E   26039.48716295  .00002263  00000+0  40154-3 0  9992
2 25876  51.7650  57.8962 0502305 262.1571  92.2080 14.11719355358903
HELIOS 1B               
1 25977U 99064A   26039.32044953  .00002289  00000+0  25848-3 0  9998
2 25977  98.1722 300.6970 0002054 116.2811 243.8616 14.87575414680894
TERRA                   
1 25994U 99068A   26039.48010052  .00000547  00000+0  12066-3 0  9994
2 25994  97.9656  94.0214 0000929 274.4190 193.6568 14.60982557390816
SL-16 R/B               
1 26070U 00006B   26039.48012592 -.00000085  00000+0 -19015-4 0  9996
2 26070  71.0030 159.2533 0018393 231.4033 128.5444 14.15820708344427
TITAN 4B R/B            
1 26474U 00047B   26039.47412545  .00003935  00000+0  25059-3 0  9999
2 26474  67.9891 122.6484 0037055  71.2835 289.2330 15.09318698388509
ENVISAT                 
1 27386U 02009A   26039.48772318  .00000179  00000+0  71980-4 0  9992
2 27386  98.3679 353.7897 0001296  90.6801  19.0810 14.39025867254975
