CCSDS_OMM_VERS = 2.0
CREATION_DATE  = 
ORIGINATOR     = 

OBJECT_NAME    = SL-16 R/B
OBJECT_ID      = 1998-043G
CENTER_NAME    = EARTH
REF_FRAME      = TEME
TIME_SYSTEM    = UTC
MEAN_ELEMENT_THEORY = SGP/SGP4

EPOCH          = 2026-02-08T11:21:41.792832
MEAN_MOTION    = 14.26042728
ECCENTRICITY   = .0010901
INCLINATION    = 98.8206
RA_OF_ASC_NODE = 352.6390
ARG_OF_PERICENTER = 98.3275
MEAN_ANOMALY   = 261.9140

EPHEMERIS_TYPE = 0
CLASSIFICATION_TYPE = U
NORAD_CAT_ID   = 25400
ELEMENT_SET_NO = 999
REV_AT_EPOCH   = 43482
BSTAR          = .61695E-4
MEAN_MOTION_DOT = .102E-5
MEAN_MOTION_DDOT = 0

CCSDS_OMM_VERS = 2.0
CREATION_DATE  = 
ORIGINATOR     = 

OBJECT_NAME    = SL-16 R/B
OBJECT_ID      = 1998-045B
CENTER_NAME    = EARTH
REF_FRAME      = TEME
TIME_SYSTEM    = UTC
MEAN_ELEMENT_THEORY = SGP/SGP4

EPOCH          = 2026-02-08T01:09:52.803648
MEAN_MOTION    = 14.16185156
ECCENTRICITY   = .00053419
INCLINATION    = 71.0083
RA_OF_ASC_NODE = 243.9085
ARG_OF_PERICENTER = 63.3484
MEAN_ANOMALY   = 296.8186

EPHEMERIS_TYPE = 0
CLASSIFICATION_TYPE = U
NORAD_CAT_ID   = 25407
ELEMENT_SET_NO = 999
REV_AT_EPOCH   = 42290
BSTAR          = -.2332483E-5
MEAN_MOTION_DOT = -.52E-6
MEAN_MOTION_DDOT = 0

CCSDS_OMM_VERS = 2.0
CREATION_DATE  = 
ORIGINATOR     = 

OBJECT_NAME    = ISS (ZARYA)
OBJECT_ID      = 1998-067A
CENTER_NAME    = EARTH
REF_FRAME      = TEME
TIME_SYSTEM    = UTC
MEAN_ELEMENT_THEORY = SGP/SGP4

EPOCH          = 2026-02-08T11:18:05.448960
MEAN_MOTION    = 15.48482804
ECCENTRICITY   = .0011024
INCLINATION    = 51.6313
RA_OF_ASC_NODE = 216.7956
ARG_OF_PERICENTER = 77.2796
MEAN_ANOMALY   = 282.9424

EPHEMERIS_TYPE = 0
CLASSIFICATION_TYPE = U
NORAD_CAT_ID   = 25544
ELEMENT_SET_NO = 999
REV_AT_EPOCH   = 55180
BSTAR          = .19579E-3
MEAN_MOTION_DOT = .10176E-3
MEAN_MOTION_DDOT = 0

CCSDS_OMM_VERS = 2.0
CREATION_DATE  = 
ORIGINATOR     = 

OBJECT_NAME    = CZ-4B R/B
OBJECT_ID      = 1999-025C
CENTER_NAME    = EARTH
REF_FRAME      = TEME
TIME_SYSTEM    = UTC
MEAN_ELEMENT_THEORY = SGP/SGP4

EPOCH          = 2026-02-08T02:31:48.173088
MEAN_MOTION    = 14.18259329
ECCENTRICITY   = .00381101
INCLINATION    = 98.6685
RA_OF_ASC_NODE = 84.0797
ARG_OF_PERICENTER = 70.7188
MEAN_ANOMALY   = 349.4988

EPHEMERIS_TYPE = 0
CLASSIFICATION_TYPE = U
NORAD_CAT_ID   = 25732
ELEMENT_SET_NO = 999
REV_AT_EPOCH   = 38397
BSTAR          = .50234461E-4
MEAN_MOTION_DOT = .61E-6
MEAN_MOTION_DDOT = 0

CCSDS_OMM_VERS = 2.0
CREATION_DATE  = 
ORIGINATOR     = 

OBJECT_NAME    = OKEAN-O
OBJECT_ID      = 1999-039A
CENTER_NAME    = EARTH
REF_FRAME      = TEME
TIME_SYSTEM    = UTC
MEAN_ELEMENT_THEORY = SGP/SGP4

EPOCH          = 2026-02-08T02:42:57.322080
MEAN_MOTION    = 14.80286486
ECCENTRICITY   = .00018779
INCLINATION    = 97.9508
RA_OF_ASC_NODE = 99.2955
ARG_OF_PERICENTER = 87.2412
MEAN_ANOMALY   = 272.9014

EPHEMERIS_TYPE = 0
CLASSIFICATION_TYPE = U
NORAD_CAT_ID   = 25860
ELEMENT_SET_NO = 999
REV_AT_EPOCH   = 43001
BSTAR          = .12279583E-3
MEAN_MOTION_DOT = .883E-5
MEAN_MOTION_DDOT = 0

CCSDS_OMM_VERS = 2.0
CREATION_DATE  = 
ORIGINATOR     = 

OBJECT_NAME    = SL-16 R/B
OBJECT_ID      = 1999-039B
CENTER_NAME    = EARTH
REF_FRAME      = TEME
TIME_SYSTEM    = UTC
MEAN_ELEMENT_THEORY = SGP/SGP4

EPOCH          = 2026-02-08T02:54:13.504896
MEAN_MOTION    = 14.81689152
ECCENTRICITY   = .00146866
INCLINATION    = 98.0030
RA_OF_ASC_NODE = 98.2517
ARG_OF_PERICENTER = 358.9343
MEAN_ANOMALY   = 1.1836

EPHEMERIS_TYPE = 0
CLASSIFICATION_TYPE = U
NORAD_CAT_ID   = 25861
ELEMENT_SET_NO = 999
REV_AT_EPOCH   = 43248
BSTAR          = .96485182E-4
MEAN_MOTION_DOT = .707E-5
MEAN_MOTION_DDOT = 0

CCSDS_OMM_VERS = 2.0
CREATION_DATE  = 
ORIGINATOR     = 

OBJECT_NAME    = DELTA 2 R/B
OBJECT_ID      = 1999-041E
CENTER_NAME    = EARTH
REF_FRAME      = TEME
TIME_SYSTEM    = UTC
MEAN_ELEMENT_THEORY = SGP/SGP4

EPOCH          = 2026-02-08T11:41:30.878880
MEAN_MOTION    = 14.11719355
ECCENTRICITY   = .0502305
INCLINATION    = 51.7650
RA_OF_ASC_NODE = 57.8962
ARG_OF_PERICENTER = 262.1571
MEAN_ANOMALY   = 92.2080

EPHEMERIS_TYPE = 0
CLASSIFICATION_TYPE = U
NORAD_CAT_ID   = 25876
ELEMENT_SET_NO = 999
REV_AT_EPOCH   = 35890
BSTAR          = .40154E-3
MEAN_MOTION_DOT = .2263E-4
MEAN_MOTION_DDOT = 0

CCSDS_OMM_VERS = 2.0
CREATION_DATE  = 
ORIGINATOR     = 

OBJECT_NAME    = HELIOS 1B
OBJECT_ID      = 1999-064A
CENTER_NAME    = EARTH
REF_FRAME      = TEME
TIME_SYSTEM    = UTC
MEAN_ELEMENT_THEORY = SGP/SGP4

EPOCH          = 2026-02-08T07:41:26.839392
MEAN_MOTION    = 14.87575414
ECCENTRICITY   = .0002054
INCLINATION    = 98.1722
RA_OF_ASC_NODE = 300.6970
ARG_OF_PERICENTER = 116.2811
MEAN_ANOMALY   = 243.8616

EPHEMERIS_TYPE = 0
CLASSIFICATION_TYPE = U
NORAD_CAT_ID   = 25977
ELEMENT_SET_NO = 999
REV_AT_EPOCH   = 68089
BSTAR          = .25848E-3
MEAN_MOTION_DOT = .2289E-4
MEAN_MOTION_DDOT = 0

CCSDS_OMM_VERS = 2.0
CREATION_DATE  = 
ORIGINATOR     = 

OBJECT_NAME    = TERRA
OBJECT_ID      = 1999-068A
CENTER_NAME    = EARTH
REF_FRAME      = TEME
TIME_SYSTEM    = UTC
MEAN_ELEMENT_THEORY = SGP/SGP4

EPOCH          = 2026-02-08T11:31:20.684928
MEAN_MOTION    = 14.60982557
ECCENTRICITY   = .0000929
INCLINATION    = 97.9656
RA_OF_ASC_NODE = 94.0214
ARG_OF_PERICENTER = 274.4190
MEAN_ANOMALY   = 193.6568

EPHEMERIS_TYPE = 0
CLASSIFICATION_TYPE = U
NORAD_CAT_ID   = 25994
ELEMENT_SET_NO = 999
REV_AT_EPOCH   = 39081
BSTAR          = .12066E-3
MEAN_MOTION_DOT = .547E-5
MEAN_MOTION_DDOT = 0

CCSDS_OMM_VERS = 2.0
CREATION_DATE  = 
ORIGINATOR     = 

OBJECT_NAME    = SL-16 R/B
OBJECT_ID      = 2000-006B
CENTER_NAME    = EARTH
REF_FRAME      = TEME
TIME_SYSTEM    = UTC
MEAN_ELEMENT_THEORY = SGP/SGP4

EPOCH          = 2026-02-08T11:31:22.879488
MEAN_MOTION    = 14.15820708
ECCENTRICITY   = .0018393
INCLINATION    = 71.0030
RA_OF_ASC_NODE = 159.2533
ARG_OF_PERICENTER = 231.4033
MEAN_ANOMALY   = 128.5444

EPHEMERIS_TYPE = 0
CLASSIFICATION_TYPE = U
NORAD_CAT_ID   = 26070
ELEMENT_SET_NO = 999
REV_AT_EPOCH   = 34442
BSTAR          = -.19015E-4
MEAN_MOTION_DOT = -.85E-6
MEAN_MOTION_DDOT = 0

CCSDS_OMM_VERS = 2.0
CREATION_DATE  = 
ORIGINATOR     = 

OBJECT_NAME    = TITAN 4B R/B
OBJECT_ID      = 2000-047B
CENTER_NAME    = EARTH
REF_FRAME      = TEME
TIME_SYSTEM    = UTC
MEAN_ELEMENT_THEORY = SGP/SGP4

EPOCH          = 2026-02-08T11:22:44.438880
MEAN_MOTION    = 15.09318698
ECCENTRICITY   = .0037055
INCLINATION    = 67.9891
RA_OF_ASC_NODE = 122.6484
ARG_OF_PERICENTER = 71.2835
MEAN_ANOMALY   = 289.2330

EPHEMERIS_TYPE = 0
CLASSIFICATION_TYPE = U
NORAD_CAT_ID   = 26474
ELEMENT_SET_NO = 999
REV_AT_EPOCH   = 38850
BSTAR          = .25059E-3
MEAN_MOTION_DOT = .3935E-4
MEAN_MOTION_DDOT = 0

CCSDS_OMM_VERS = 2.0
CREATION_DATE  = 
ORIGINATOR     = 

OBJECT_NAME    = ENVISAT
OBJECT_ID      = 2002-009A
CENTER_NAME    = EARTH
REF_FRAME      = TEME
TIME_SYSTEM    = UTC
MEAN_ELEMENT_THEORY = SGP/SGP4

EPOCH          = 2026-02-08T11:42:19.282752
MEAN_MOTION    = 14.39025867
ECCENTRICITY   = .0001296
INCLINATION    = 98.3679
RA_OF_ASC_NODE = 353.7897
ARG_OF_PERICENTER = 90.6801
MEAN_ANOMALY   = 19.0810

EPHEMERIS_TYPE = 0
CLASSIFICATION_TYPE = U
NORAD_CAT_ID   = 27386
ELEMENT_SET_NO = 999
REV_AT_EPOCH   = 25497
BSTAR          = .7198E-4
MEAN_MOTION_DOT = .179E-5
MEAN_MOTION_DDOT = 0

